GLOBALSTAR M068         
1 32266U 07048D   24204.25861306 -.00000067  00000+0  20209-3 0  9990
2 32266  51.9860 227.9675 0001052 137.3205 303.1095 12.62794822775875
GLOBALSTAR M079         
1 37188U 10054A   24204.52623991 -.00000076  00000+0  15613-3 0  9998
2 37188  52.0045  63.3263 0000600  57.1735 329.6324 12.62261869634827
GLOBALSTAR M074         
1 37189U 10054B   24204.18535906 -.00000078  00000+0  14325-3 0  9990
2 37189  52.0024  63.7385 0000824  69.6663  86.7099 12.62270580635382
GLOBALSTAR M076         
1 37190U 10054C   24204.58053442 -.00000069  00000+0  19233-3 0  9999
2 37190  52.0036  62.6767 0000932  45.1577 347.8108 12.62253888635151
GLOBALSTAR M077         
1 37191U 10054D   24204.74334050 -.00000102  00000+0  75154-5 0  9999
2 37191  52.0088  18.9416 0000892  88.8774  24.6078 12.62261403636285
GLOBALSTAR M075         
1 37192U 10054E   24204.22844692 -.00000072  00000+0  17990-3 0  9999
2 37192  51.9947 106.1890 0000543  51.0206 121.3963 12.62261955634333
GLOBALSTAR M073         
1 37193U 10054F   24204.51510601 -.00000103  00000+0  40974-5 0  9997
2 37193  52.0082  18.8849 0000842  77.4227 317.1900 12.62267178636203
GLOBALSTAR M083         
1 37739U 11033A   24204.53193878 -.00000077  00000+0  15198-3 0  9994
2 37739  51.9881 328.0146 0000620 124.6575 288.1429 12.62262577605224
GLOBALSTAR M088         
1 37740U 11033B   24204.52780601 -.00000078  00000+0  14259-3 0  9999
2 37740  51.9711 233.7960 0000255 191.3682 322.8317 12.62265545600762
GLOBALSTAR M091         
1 37741U 11033C   24204.46487198 -.00000114  00000+0 -59259-4 0  9990
2 37741  51.9969 196.9538 0000253 229.0780 297.4512 12.62264866601541
GLOBALSTAR M085         
1 37742U 11033D   24204.58389170 -.00000100  00000+0  20139-4 0  9994
2 37742  51.9856 147.9191 0000166   9.8325  39.2456 12.62263548602074
GLOBALSTAR M081         
1 37743U 11033E   24204.39479962 -.00000110  00000+0 -32819-4 0  9993
2 37743  51.9944 151.0791 0000369 341.1249 167.6217 12.62267052602195
GLOBALSTAR M089         
1 37744U 11033F   24204.80743598 -.00000078  00000+0  14227-3 0  9993
2 37744  51.9929 104.1155 0000909  41.3385   1.9234 12.62266122603346
GLOBALSTAR M084         
1 38040U 11080A   24204.84763823 -.00000075  00000+0  16205-3 0  9997
2 38040  52.0029 331.1049 0000926  93.0264  74.3000 12.62264521581354
GLOBALSTAR M080         
1 38041U 11080B   24204.55934962 -.00000091  00000+0  70406-4 0  9992
2 38041  52.0083 333.4730 0000827  76.7246 340.2290 12.62262984581161
GLOBALSTAR M082         
1 38042U 11080C   24204.41909090 -.00000073  00000+0  17020-3 0  9994
2 38042  52.0083 289.3131 0000949 157.0123 282.1831 12.62264076581853
GLOBALSTAR M092         
1 38043U 11080D   24204.54145043 -.00000082  00000+0  12049-3 0  9995
2 38043  52.0103  19.2966 0000969  88.9256 306.7710 12.62263984580321
GLOBALSTAR M090         
1 38044U 11080E   24204.77858147 -.00000054  00000+0  27795-3 0  9990
2 38044  51.9888 282.4524 0000646 150.0431   3.0983 12.62265151582051
GLOBALSTAR M086         
1 38045U 11080F   24204.72826800 -.00000071  00000+0  18444-3 0  9997
2 38045  51.9899 283.1298 0000387 306.9161 218.2687 12.62264626582051
GLOBALSTAR M097         
1 39072U 13005A   24204.40216950 -.00000111  00000+0 -40882-4 0  9999
2 39072  52.0019 198.3357 0000183 263.6557  96.4289 12.62269131529166
GLOBALSTAR M093         
1 39073U 13005B   24204.29609848 -.00000109  00000+0 -26542-4 0  9993
2 39073  51.9784 192.4862 0000315 269.8351  90.2480 12.62276130529103
GLOBALSTAR M094         
1 39074U 13005C   24204.29609998 -.00000088  00000+0  88514-4 0  9992
2 39074  51.9959 106.5381 0000491  23.0655 337.0234 12.62286508530710
GLOBALSTAR M096         
1 39075U 13005D   24204.30935351 -.00000109  00000+0 -31536-4 0  9997
2 39075  52.0058 154.7545 0000196 311.1125  48.9725 12.62267696529634
GLOBALSTAR M078         
1 39076U 13005E   24204.59977913 -.00000083  00000+0  11746-3 0  9999
2 39076  51.9851 238.8316 0001184 160.2636 199.8277 12.62273446528505
GLOBALSTAR M095         
1 39077U 13005F   24204.54671614 -.00000080  00000+0  13484-3 0  9992
2 39077  51.9777 236.3515 0000772 192.6022 167.4825 12.62262659528141
GLOBALSTAR M087         
1 52888U 22064A   24204.15376376 -.00000061  00000+0  12868-3 0  9990
2 52888  51.9761  86.4542 0010068  91.6831 268.5223 13.37579067102205
